{"type":"FeatureCollection","features":[{"type":"Feature","properties":{"district_id":"district_jaipur_rural","shapeName":"Jaipur","shapeID":"76128533B28755611410447"},"geometry":{"type":"Polygon","coordinates":[[[76.0877,27.8479],[76.0903,27.841],[76.0983,27.8303],[76.0976,27.8232],[76.0941,27.8128],[76.0904,27.8069],[76.082,27.8019],[76.0738,27.7833],[76.0718,27.7747],[76.0678,27.7709],[76.0576,27.772],[76.0426,27.7515],[76.0367,27.7405],[76.0356,27.7315],[76.0291,27.7268],[76.0149,27.722],[76.0018,27.7148],[75.9921,27.7032],[75.9803,27.6556],[75.9703,27.6442],[75.9595,27.6421],[75.9571,27.6384],[75.9652,27.6243],[75.9603,27.6224],[75.9507,27.6241],[75.9429,27.6217],[75.9468,27.6117],[75.9474,27.6021],[75.9429,27.5928],[75.9491,27.5917],[75.9534,27.5979],[75.9581,27.5958],[75.9608,27.5989],[75.9656,27.6004],[75.9679,27.5943],[75.9608,27.5918],[75.9532,27.584],[75.947,27.5754],[75.944,27.5681],[75.9537,27.5649],[75.9519,27.5555],[75.9529,27.5468],[75.95,27.5301],[75.9444,27.5172],[75.9389,27.4964],[75.9701,27.5031],[75.9794,27.5014],[75.9865,27.4907],[75.9822,27.4856],[75.9865,27.4779],[75.9802,27.4755],[75.9759,27.4775],[75.9703,27.4774],[75.9663,27.472],[75.9616,27.4762],[75.9551,27.4761],[75.9526,27.4698],[75.9458,27.4719],[75.9407,27.4683],[75.9374,27.4633],[75.9277,27.4648],[75.9254,27.4613],[75.9208,27.459],[75.9205,27.455],[75.8964,27.4566],[75.8858,27.447],[75.8724,27.4237],[75.8716,27.4165],[75.8799,27.4074],[75.8845,27.3986],[75.8787,27.3893],[75.8674,27.3882],[75.8604,27.3917],[75.8565,27.398],[75.8468,27.4006],[75.8388,27.3963],[75.8314,27.3896],[75.817,27.3982],[75.812,27.405],[75.8014,27.388],[75.7948,27.3808],[75.7787,27.3846],[75.7775,27.3959],[75.7751,27.4023],[75.7405,27.4042],[75.7348,27.3959],[75.7313,27.3864],[75.7218,27.3828],[75.7259,27.3692],[75.6932,27.3721],[75.6799,27.3709],[75.6663,27.3659],[75.6678,27.353],[75.6661,27.3445],[75.6612,27.338],[75.65,27.3377],[75.6295,27.3404],[75.6147,27.3148],[75.6,27.3085],[75.5926,27.3092],[75.5911,27.3076],[75.5808,27.3064],[75.5792,27.3097],[75.5741,27.3117],[75.5772,27.3277],[75.5763,27.3366],[75.5732,27.3419],[75.5318,27.3439],[75.523,27.3351],[75.5101,27.3296],[75.508,27.3145],[75.4923,27.3037],[75.4882,27.2993],[75.487,27.295],[75.4795,27.2947],[75.4776,27.2892],[75.4583,27.2889],[75.4541,27.2972],[75.4332,27.3011],[75.4334,27.2942],[75.4307,27.2877],[75.4098,27.2921],[75.3919,27.2894],[75.3816,27.2897],[75.382,27.2837],[75.396,27.2826],[75.3915,27.2671],[75.3904,27.254],[75.3921,27.24],[75.3856,27.2427],[75.3808,27.2401],[75.3784,27.2332],[75.3689,27.2323],[75.3683,27.2297],[75.3704,27.2283],[75.3589,27.2255],[75.348,27.2126],[75.3297,27.2139],[75.3282,27.2089],[75.3234,27.2082],[75.3181,27.1938],[75.3172,27.1592],[75.3193,27.1469],[75.3269,27.146],[75.3312,27.1476],[75.3339,27.1429],[75.3341,27.1387],[75.3382,27.1372],[75.3423,27.1399],[75.3454,27.1397],[75.3452,27.1353],[75.3424,27.1289],[75.3419,27.1178],[75.3484,27.1172],[75.3505,27.1091],[75.3642,27.1117],[75.3673,27.1102],[75.3699,27.1009],[75.3693,27.0876],[75.3517,27.0859],[75.341,27.0935],[75.3362,27.0947],[75.3327,27.0919],[75.325,27.0908],[75.3116,27.0896],[75.2914,27.0914],[75.2662,27.0897],[75.2515,27.0885],[75.2221,27.0828],[75.2241,27.0725],[75.224,27.0554],[75.2306,27.055],[75.2359,27.0517],[75.2424,27.0504],[75.247,27.0411],[75.2584,27.0392],[75.2602,27.0342],[75.2496,27.025],[75.244,27.0165],[75.2364,27.0175],[75.2253,27.0163],[75.2145,27.0091],[75.2087,27.0098],[75.2054,27.0071],[75.2024,26.9951],[75.2049,26.9736],[75.1907,26.9734],[75.1607,26.9698],[75.1668,26.9617],[75.1665,26.9329],[75.1441,26.9309],[75.1214,26.9318],[75.1039,26.9364],[75.0427,26.9409],[75.0146,26.9453],[75.0161,26.9136],[75.0153,26.895],[75.001,26.8933],[74.9992,26.8901],[74.9948,26.8907],[74.9939,26.8884],[74.9778,26.8903],[74.9717,26.8837],[74.9657,26.8727],[74.958,26.8676],[74.9567,26.8573],[74.9588,26.8488],[74.9575,26.8468],[74.947,26.8453],[74.9388,26.8419],[74.9177,26.8369],[74.9236,26.8271],[74.9278,26.8101],[74.9288,26.7905],[74.9355,26.7932],[74.9374,26.7786],[74.9427,26.7799],[74.9408,26.7633],[74.9416,26.7498],[74.9436,26.7456],[74.9478,26.7434],[74.9615,26.7535],[74.9829,26.762],[75.0065,26.7491],[75.0092,26.7452],[75.0096,26.7402],[75.0063,26.734],[75.001,26.7307],[74.9465,26.7324],[74.9453,26.7211],[74.9656,26.7222],[74.9688,26.7102],[74.9646,26.7058],[74.9665,26.6835],[74.9752,26.673],[75.001,26.6865],[75.0144,26.6871],[75.0137,26.684],[75.0218,26.6728],[75.0224,26.6653],[75.0322,26.66],[75.0353,26.664],[75.0433,26.6615],[75.0427,26.6576],[75.0528,26.6534],[75.0617,26.6548],[75.0687,26.6506],[75.0711,26.6327],[75.0666,26.6286],[75.0657,26.6216],[75.0691,26.6123],[75.0827,26.6099],[75.0834,26.596],[75.0811,26.59],[75.0818,26.5866],[75.0728,26.5823],[75.0631,26.5559],[75.0722,26.5441],[75.0783,26.5431],[75.0827,26.5486],[75.0989,26.5551],[75.1053,26.556],[75.1245,26.5469],[75.1232,26.5334],[75.1169,26.5236],[75.1418,26.5041],[75.1539,26.5002],[75.1529,26.4858],[75.148,26.4799],[75.1461,26.4739],[75.1497,26.4692],[75.1575,26.4671],[75.1606,26.4685],[75.1598,26.4721],[75.1631,26.4721],[75.1636,26.4587],[75.171,26.4621],[75.1744,26.4627],[75.1752,26.469],[75.1886,26.4841],[75.1908,26.4889],[75.1961,26.4831],[75.2017,26.4804],[75.1973,26.5014],[75.2066,26.5157],[75.2192,26.5079],[75.2308,26.5062],[75.225,26.5143],[75.2315,26.5254],[75.2341,26.5219],[75.2381,26.5212],[75.2406,26.5265],[75.2446,26.5286],[75.2555,26.5302],[75.2563,26.5416],[75.2697,26.5479],[75.2877,26.564],[75.2968,26.5587],[75.3218,26.5607],[75.3319,26.5582],[75.337,26.5491],[75.341,26.5354],[75.3419,26.5292],[75.3383,26.5215],[75.3485,26.5175],[75.3531,26.5016],[75.3586,26.4957],[75.3734,26.4862],[75.3832,26.4901],[75.3912,26.482],[75.3959,26.4828],[75.414,26.481],[75.411,26.4914],[75.4116,26.4954],[75.4245,26.4837],[75.438,26.4816],[75.4446,26.4839],[75.4537,26.4932],[75.4643,26.4913],[75.4872,26.4809],[75.5038,26.4811],[75.507,26.4792],[75.5094,26.4734],[75.5165,26.4681],[75.5281,26.4632],[75.5342,26.4697],[75.5496,26.4787],[75.5505,26.4851],[75.5538,26.4863],[75.5603,26.4811],[75.5685,26.479],[75.5769,26.473],[75.5775,26.4614],[75.5749,26.4463],[75.5845,26.446],[75.5902,26.4476],[75.6009,26.4431],[75.6182,26.4395],[75.6258,26.4414],[75.6444,26.4425],[75.6506,26.4452],[75.6554,26.4536],[75.6536,26.4638],[75.656,26.4661],[75.6655,26.4609],[75.6849,26.459],[75.6843,26.4537],[75.6904,26.4515],[75.6994,26.4506],[75.6988,26.4458],[75.7132,26.4449],[75.7306,26.4655],[75.7351,26.4594],[75.7395,26.4493],[75.7452,26.447],[75.7491,26.4528],[75.7502,26.4689],[75.759,26.4692],[75.7687,26.4659],[75.7717,26.4671],[75.7736,26.4724],[75.7714,26.4804],[75.7743,26.4849],[75.779,26.4862],[75.7775,26.509],[75.7868,26.5241],[75.7749,26.5324],[75.7737,26.5357],[75.7749,26.5434],[75.7825,26.544],[75.7992,26.5499],[75.8045,26.547],[75.8077,26.5401],[75.8008,26.5307],[75.8042,26.5267],[75.8111,26.5244],[75.8179,26.5181],[75.8271,26.5159],[75.8369,26.5105],[75.844,26.5123],[75.8563,26.5185],[75.8857,26.5193],[75.8892,26.5123],[75.9044,26.5093],[75.9142,26.5105],[75.935,26.5053],[75.9379,26.4937],[75.9543,26.4894],[75.964,26.4831],[75.975,26.5023],[75.9869,26.4972],[75.9879,26.5015],[75.9917,26.4973],[76.0096,26.492],[76.017,26.5035],[76.0277,26.5065],[76.0359,26.5169],[76.0439,26.5107],[76.0732,26.5075],[76.0827,26.5216],[76.0897,26.5241],[76.0996,26.5236],[76.1139,26.5354],[76.1213,26.5342],[76.1293,26.5288],[76.1478,26.5284],[76.1523,26.5255],[76.1614,26.5148],[76.1593,26.5386],[76.1555,26.5503],[76.1543,26.5675],[76.17,26.6056],[76.1744,26.6196],[76.1843,26.6361],[76.1838,26.6505],[76.1744,26.6643],[76.1715,26.6786],[76.1723,26.6942],[76.1761,26.7138],[76.1764,26.7266],[76.1776,26.7277],[76.1891,26.7273],[76.188,26.7225],[76.1911,26.7097],[76.2054,26.7047],[76.209,26.7102],[76.2119,26.7108],[76.211,26.7161],[76.2126,26.7192],[76.2044,26.724],[76.1979,26.724],[76.2073,26.7312],[76.2204,26.7324],[76.195,26.7407],[76.1911,26.7403],[76.1898,26.7465],[76.1929,26.7461],[76.1908,26.7492],[76.1807,26.7501],[76.1763,26.7482],[76.1756,26.742],[76.1745,26.7549],[76.178,26.7657],[76.1806,26.7652],[76.1833,26.7767],[76.186,26.7795],[76.1861,26.7821],[76.1846,26.7834],[76.1902,26.795],[76.1913,26.7943],[76.1955,26.7967],[76.1958,26.7946],[76.1968,26.799],[76.2035,26.8039],[76.2063,26.8051],[76.2131,26.8047],[76.2162,26.8017],[76.2164,26.798],[76.2181,26.7974],[76.2293,26.7977],[76.2419,26.803],[76.2607,26.8045],[76.2543,26.8097],[76.2515,26.8159],[76.2442,26.8169],[76.2421,26.8211],[76.2424,26.8269],[76.2446,26.8281],[76.2441,26.8339],[76.24,26.8322],[76.2501,26.8423],[76.2513,26.8667],[76.2548,26.8878],[76.2501,26.898],[76.2343,26.9098],[76.2339,26.9285],[76.2422,26.9442],[76.2522,26.9578],[76.252,26.9901],[76.2556,27.0088],[76.273,27.0381],[76.2832,27.0814],[76.2892,27.0872],[76.2899,27.1024],[76.2939,27.1294],[76.2926,27.146],[76.2912,27.1538],[76.2875,27.1602],[76.2817,27.1799],[76.2783,27.1834],[76.2699,27.1839],[76.2588,27.1765],[76.2455,27.1506],[76.2257,27.1412],[76.2138,27.1254],[76.2085,27.1207],[76.2042,27.1189],[76.1953,27.1213],[76.1856,27.1321],[76.191,27.1436],[76.1913,27.1523],[76.1859,27.1846],[76.1704,27.183],[76.1597,27.1847],[76.1582,27.1883],[76.1587,27.1932],[76.1604,27.1995],[76.1641,27.2026],[76.165,27.2084],[76.1639,27.2156],[76.1587,27.2219],[76.1536,27.2224],[76.1498,27.221],[76.1398,27.2004],[76.1291,27.1967],[76.1424,27.2257],[76.1303,27.2301],[76.1263,27.2333],[76.1255,27.2381],[76.1282,27.2512],[76.1409,27.2622],[76.1445,27.2786],[76.1529,27.2828],[76.155,27.2868],[76.1552,27.2943],[76.1606,27.3133],[76.1734,27.3117],[76.1772,27.3126],[76.1852,27.3361],[76.2062,27.3646],[76.2046,27.3686],[76.2011,27.3707],[76.2019,27.3756],[76.2105,27.3793],[76.22,27.3935],[76.2251,27.3984],[76.2308,27.4009],[76.2348,27.4176],[76.2333,27.4273],[76.2295,27.4378],[76.2314,27.4453],[76.2365,27.4467],[76.2524,27.4434],[76.2558,27.4444],[76.2554,27.4463],[76.2442,27.4505],[76.2314,27.4508],[76.2232,27.4557],[76.2251,27.4581],[76.2319,27.4595],[76.2355,27.463],[76.237,27.4697],[76.2414,27.4733],[76.2479,27.4884],[76.2486,27.5033],[76.2404,27.5141],[76.2411,27.5252],[76.2335,27.5312],[76.2169,27.537],[76.2181,27.5528],[76.2164,27.567],[76.209,27.6022],[76.2043,27.6067],[76.2024,27.6148],[76.2034,27.6221],[76.2059,27.6235],[76.2113,27.6234],[76.2137,27.6247],[76.2148,27.6276],[76.22,27.6284],[76.2426,27.6246],[76.2476,27.6267],[76.2507,27.6302],[76.2532,27.636],[76.2525,27.6416],[76.2551,27.6537],[76.2546,27.6594],[76.2517,27.663],[76.2447,27.6659],[76.2425,27.6697],[76.2452,27.6716],[76.2579,27.6709],[76.2583,27.6758],[76.2498,27.6798],[76.2477,27.6824],[76.2487,27.686],[76.2588,27.6901],[76.2605,27.7],[76.2567,27.7127],[76.2561,27.7283],[76.2476,27.7439],[76.247,27.7613],[76.2506,27.7637],[76.2617,27.7661],[76.2669,27.7718],[76.2768,27.7884],[76.2756,27.7974],[76.2767,27.802],[76.2784,27.8027],[76.2913,27.8003],[76.2877,27.8067],[76.2658,27.8218],[76.2641,27.8261],[76.2687,27.8348],[76.2581,27.8451],[76.2503,27.8493],[76.2449,27.8502],[76.2269,27.8332],[76.2191,27.8166],[76.2105,27.8161],[76.2084,27.817],[76.2086,27.8186],[76.2015,27.8214],[76.1941,27.8091],[76.1838,27.7978],[76.1798,27.7972],[76.1729,27.7996],[76.1728,27.8054],[76.1647,27.8119],[76.159,27.8147],[76.1539,27.8153],[76.1545,27.8197],[76.1453,27.8227],[76.1331,27.8245],[76.1362,27.8393],[76.1286,27.8437],[76.1242,27.851],[76.1175,27.8519],[76.1162,27.8505],[76.1067,27.8561],[76.0993,27.8566],[76.0895,27.8606],[76.0877,27.8479]]]}},{"type":"Feature","properties":{"district_id":"district_alwar","shapeName":"Alwar","shapeID":"76128533B5628791558965"},"geometry":{"type":"Polygon","coordinates":[[[76.8537,28.2206],[76.8496,28.2216],[76.8478,28.2214],[76.8467,28.2191],[76.8429,28.2204],[76.8391,28.2196],[76.8321,28.209],[76.8146,28.209],[76.8093,28.2107],[76.806,28.2056],[76.8058,28.1974],[76.8142,28.1931],[76.8135,28.19],[76.8079,28.1863],[76.8027,28.1874],[76.8012,28.1924],[76.7993,28.1921],[76.797,28.1907],[76.7935,28.1837],[76.7966,28.1809],[76.7959,28.1698],[76.7986,28.1682],[76.7968,28.1669],[76.8012,28.1644],[76.8016,28.1629],[76.7959,28.1484],[76.7912,28.1504],[76.7855,28.1507],[76.7834,28.1467],[76.778,28.1438],[76.7713,28.1451],[76.7646,28.1434],[76.7539,28.1342],[76.7443,28.1215],[76.726,28.1258],[76.7207,28.1255],[76.7193,28.1275],[76.7164,28.1278],[76.7128,28.1254],[76.7057,28.1109],[76.7024,28.1091],[76.6982,28.1098],[76.6952,28.1064],[76.6875,28.0945],[76.689,28.0905],[76.688,28.0878],[76.6642,28.0915],[76.6579,28.0892],[76.6563,28.0757],[76.6524,28.0616],[76.6527,28.0563],[76.6563,28.0531],[76.6593,28.0469],[76.6594,28.0429],[76.6551,28.0347],[76.6603,28.0329],[76.6638,28.0298],[76.6689,28.0138],[76.6585,28.0074],[76.6414,28.0023],[76.6069,28.0037],[76.6018,27.9994],[76.5907,27.9973],[76.5887,27.9933],[76.5845,27.9917],[76.5811,27.9789],[76.5653,27.9781],[76.5644,27.9719],[76.5661,27.9706],[76.5645,27.9659],[76.5489,27.9638],[76.5455,27.9637],[76.5389,27.9677],[76.5367,27.9788],[76.5422,27.9861],[76.5435,27.9995],[76.5372,28],[76.5415,28.0022],[76.5448,28.0074],[76.5462,28.0073],[76.5436,28.0178],[76.54,28.0232],[76.542,28.0306],[76.5444,28.0339],[76.531,28.0401],[76.5212,28.0322],[76.5108,28.0296],[76.5034,28.0314],[76.4977,28.044],[76.4831,28.0418],[76.482,28.0406],[76.4744,28.0415],[76.4623,28.0405],[76.4555,28.0425],[76.4589,28.0515],[76.459,28.0561],[76.4633,28.0591],[76.4693,28.0571],[76.4732,28.0585],[76.4768,28.0572],[76.477,28.0544],[76.4902,28.0528],[76.4976,28.0538],[76.5022,28.0599],[76.4797,28.0776],[76.4726,28.0802],[76.4684,28.0788],[76.4576,28.0833],[76.451,28.0888],[76.4578,28.1053],[76.4645,28.1091],[76.478,28.1079],[76.4774,28.1055],[76.4808,28.1005],[76.5001,28.1002],[76.5013,28.1145],[76.5035,28.1187],[76.4971,28.12],[76.4879,28.1194],[76.4927,28.1298],[76.4842,28.1308],[76.4826,28.1283],[76.4772,28.1308],[76.4775,28.132],[76.4728,28.135],[76.4721,28.1385],[76.4763,28.1434],[76.4765,28.1485],[76.4669,28.1516],[76.4607,28.1474],[76.4508,28.147],[76.4382,28.1487],[76.4334,28.1409],[76.4337,28.1322],[76.4415,28.1207],[76.4422,28.1168],[76.4382,28.1141],[76.4383,28.1093],[76.4313,28.1097],[76.4236,28.1143],[76.4245,28.1208],[76.4226,28.1225],[76.4287,28.1346],[76.4294,28.1414],[76.4016,28.145],[76.3965,28.1371],[76.3944,28.1374],[76.3913,28.1341],[76.3855,28.1367],[76.3832,28.1331],[76.3671,28.1368],[76.3572,28.1435],[76.359,28.1549],[76.355,28.1548],[76.3586,28.161],[76.3552,28.1638],[76.3449,28.1699],[76.3353,28.1723],[76.334,28.1698],[76.3124,28.178],[76.3092,28.1789],[76.3069,28.1756],[76.2942,28.1791],[76.2914,28.1701],[76.2843,28.1712],[76.2826,28.1654],[76.3034,28.1599],[76.3035,28.1585],[76.3064,28.1593],[76.3052,28.1547],[76.2998,28.152],[76.2995,28.149],[76.3119,28.1455],[76.3125,28.1472],[76.3145,28.1471],[76.3161,28.1505],[76.3229,28.1484],[76.3318,28.1426],[76.3337,28.1392],[76.3325,28.1369],[76.3354,28.1361],[76.335,28.1334],[76.356,28.1277],[76.3617,28.1248],[76.3523,28.1141],[76.3483,28.1124],[76.3384,28.1024],[76.3195,28.1076],[76.3112,28.1081],[76.3033,28.0977],[76.3206,28.0887],[76.3245,28.0908],[76.3307,28.0876],[76.3361,28.0798],[76.3349,28.0767],[76.3458,28.0713],[76.3453,28.0701],[76.3523,28.0698],[76.3536,28.0717],[76.3575,28.0706],[76.357,28.068],[76.3584,28.0674],[76.3515,28.0458],[76.3442,28.0304],[76.3303,28.0183],[76.3249,28.0214],[76.3226,28.0158],[76.3208,28.0153],[76.3144,28.017],[76.3138,28.0188],[76.2997,28.0225],[76.293,28.0258],[76.292,28.0345],[76.2944,28.0492],[76.285,28.0515],[76.2839,28.0573],[76.2618,28.0675],[76.2574,28.0676],[76.2448,28.0642],[76.2395,28.0495],[76.2326,28.051],[76.2298,28.048],[76.222,28.0502],[76.2211,28.0489],[76.2094,28.0522],[76.2104,28.0558],[76.203,28.0583],[76.2011,28.0556],[76.1914,28.0563],[76.19,28.0532],[76.1823,28.0544],[76.1798,28.0455],[76.1906,28.0365],[76.1914,28.0343],[76.1979,28.0303],[76.2026,28.0293],[76.2045,28.0378],[76.218,28.0354],[76.2163,28.0262],[76.2052,28.0279],[76.1977,28.0154],[76.1862,28.0203],[76.1788,28.0214],[76.1714,28.0073],[76.164,28.0013],[76.1602,27.9913],[76.1594,27.9871],[76.1687,27.9828],[76.1679,27.9768],[76.1653,27.9733],[76.1885,27.9654],[76.1858,27.9615],[76.1843,27.9619],[76.1825,27.957],[76.1818,27.9528],[76.1843,27.9518],[76.1792,27.9303],[76.1758,27.9297],[76.1705,27.9152],[76.17,27.9033],[76.188,27.8989],[76.2034,27.8924],[76.204,27.8872],[76.2022,27.8781],[76.1963,27.8773],[76.1957,27.8753],[76.1957,27.8594],[76.2141,27.8463],[76.2107,27.8399],[76.2269,27.8332],[76.2449,27.8502],[76.2503,27.8493],[76.2581,27.8451],[76.2687,27.8348],[76.2641,27.8261],[76.2658,27.8218],[76.2877,27.8067],[76.2913,27.8003],[76.2784,27.8027],[76.2767,27.802],[76.2756,27.7974],[76.2768,27.7884],[76.2669,27.7718],[76.2617,27.7661],[76.2506,27.7637],[76.247,27.7613],[76.2476,27.7439],[76.2561,27.7283],[76.2567,27.7127],[76.2605,27.7],[76.2588,27.6901],[76.2487,27.686],[76.2477,27.6824],[76.2498,27.6798],[76.2583,27.6758],[76.2579,27.6709],[76.2452,27.6716],[76.2425,27.6697],[76.2447,27.6659],[76.2517,27.663],[76.2546,27.6594],[76.2551,27.6537],[76.2525,27.6416],[76.2532,27.636],[76.2507,27.6302],[76.2476,27.6267],[76.2426,27.6246],[76.22,27.6284],[76.2148,27.6276],[76.2137,27.6247],[76.2113,27.6234],[76.2059,27.6235],[76.2034,27.6221],[76.2024,27.6148],[76.2043,27.6067],[76.209,27.6022],[76.2164,27.567],[76.2181,27.5528],[76.2169,27.537],[76.2335,27.5312],[76.2411,27.5252],[76.2404,27.5141],[76.2486,27.5033],[76.2479,27.4884],[76.2414,27.4733],[76.237,27.4697],[76.2355,27.463],[76.2319,27.4595],[76.2251,27.4581],[76.2232,27.4557],[76.2314,27.4508],[76.2442,27.4505],[76.2554,27.4463],[76.2558,27.4444],[76.2524,27.4434],[76.2365,27.4467],[76.2314,27.4453],[76.2295,27.4378],[76.2333,27.4273],[76.2348,27.4176],[76.2308,27.4009],[76.2251,27.3984],[76.22,27.3935],[76.2105,27.3793],[76.2019,27.3756],[76.2011,27.3707],[76.2046,27.3686],[76.2062,27.3646],[76.1852,27.3361],[76.1772,27.3126],[76.1734,27.3117],[76.1606,27.3133],[76.1552,27.2943],[76.155,27.2868],[76.1529,27.2828],[76.1445,27.2786],[76.1409,27.2622],[76.1282,27.2512],[76.1255,27.2381],[76.1263,27.2333],[76.1303,27.2301],[76.1424,27.2257],[76.1291,27.1967],[76.1398,27.2004],[76.1498,27.221],[76.1536,27.2224],[76.1587,27.2219],[76.1639,27.2156],[76.165,27.2084],[76.1641,27.2026],[76.1604,27.1995],[76.1587,27.1932],[76.1582,27.1883],[76.1597,27.1847],[76.1704,27.183],[76.1859,27.1846],[76.1913,27.1523],[76.191,27.1436],[76.1856,27.1321],[76.1953,27.1213],[76.2042,27.1189],[76.2085,27.1207],[76.2138,27.1254],[76.2257,27.1412],[76.2455,27.1506],[76.2588,27.1765],[76.2699,27.1839],[76.2783,27.1834],[76.2817,27.1799],[76.2875,27.1602],[76.2912,27.1538],[76.2926,27.146],[76.2939,27.1294],[76.2899,27.1024],[76.2892,27.0872],[76.2886,27.0725],[76.2941,27.0638],[76.3044,27.065],[76.3225,27.0631],[76.3297,27.0618],[76.3391,27.056],[76.3431,27.0619],[76.3511,27.0614],[76.3651,27.0562],[76.3724,27.0661],[76.3796,27.0707],[76.3849,27.0773],[76.3907,27.0794],[76.3944,27.0836],[76.4011,27.081],[76.4061,27.0966],[76.4101,27.126],[76.4216,27.1307],[76.4339,27.1332],[76.4358,27.1294],[76.4385,27.1099],[76.4445,27.0915],[76.4492,27.086],[76.4652,27.0779],[76.4737,27.079],[76.4744,27.0886],[76.4797,27.0913],[76.481,27.0987],[76.4859,27.0996],[76.4878,27.1069],[76.4951,27.1136],[76.5106,27.118],[76.5237,27.1183],[76.534,27.1282],[76.5391,27.1297],[76.5508,27.1317],[76.557,27.1282],[76.5585,27.1315],[76.5576,27.1366],[76.562,27.1429],[76.5542,27.1499],[76.5537,27.1527],[76.5585,27.16],[76.5632,27.175],[76.5714,27.1712],[76.5765,27.1713],[76.5768,27.1772],[76.5873,27.1762],[76.5959,27.1781],[76.6221,27.1773],[76.6412,27.1688],[76.6545,27.1661],[76.6309,27.1403],[76.6271,27.1287],[76.6278,27.1267],[76.6359,27.1242],[76.6359,27.1198],[76.6325,27.1106],[76.639,27.1062],[76.6384,27.0988],[76.6444,27.0948],[76.6615,27.0977],[76.6713,27.0939],[76.6737,27.0949],[76.6792,27.1116],[76.6956,27.1156],[76.7092,27.1157],[76.7218,27.1104],[76.7309,27.1089],[76.7407,27.1116],[76.7504,27.1089],[76.7626,27.1077],[76.7661,27.1103],[76.7782,27.1136],[76.7882,27.1128],[76.7916,27.1149],[76.7924,27.1241],[76.798,27.1367],[76.8008,27.1363],[76.8042,27.1294],[76.8084,27.1268],[76.8145,27.1255],[76.8171,27.1231],[76.8084,27.105],[76.8171,27.0917],[76.8194,27.08],[76.8255,27.0773],[76.8366,27.0766],[76.8415,27.0935],[76.8439,27.117],[76.8426,27.119],[76.8397,27.1196],[76.8349,27.1187],[76.8278,27.1342],[76.8345,27.1464],[76.8319,27.1631],[76.8414,27.1629],[76.8492,27.1679],[76.8515,27.1726],[76.8542,27.1892],[76.8457,27.196],[76.8473,27.2014],[76.8434,27.2044],[76.8443,27.2071],[76.847,27.2079],[76.8518,27.2125],[76.8599,27.2081],[76.8729,27.2313],[76.8907,27.2248],[76.8946,27.2263],[76.8989,27.2331],[76.9073,27.2302],[76.9032,27.2233],[76.9055,27.2205],[76.9041,27.2178],[76.909,27.2114],[76.9103,27.2069],[76.9099,27.1868],[76.915,27.1819],[76.9139,27.1779],[76.9007,27.1761],[76.8994,27.1722],[76.9017,27.1628],[76.9235,27.151],[76.9232,27.1438],[76.9279,27.1407],[76.9377,27.1389],[76.9421,27.1414],[76.9488,27.1407],[76.9501,27.1469],[76.9656,27.1461],[76.963,27.1574],[76.9693,27.1692],[76.9721,27.1791],[76.9745,27.1796],[76.9875,27.1711],[77.0045,27.1564],[77.027,27.1664],[77.0286,27.1584],[77.0311,27.1552],[77.0391,27.158],[77.0553,27.1567],[77.0604,27.1522],[77.0724,27.1624],[77.0924,27.1601],[77.0982,27.1637],[77.0972,27.1715],[77.0862,27.177],[77.084,27.1818],[77.0881,27.1878],[77.0891,27.1925],[77.0879,27.1943],[77.0836,27.1993],[77.0761,27.2023],[77.0677,27.2089],[77.0585,27.2102],[77.0469,27.217],[77.0478,27.2244],[77.0553,27.2341],[77.0595,27.2351],[77.0666,27.2309],[77.0779,27.2316],[77.0878,27.2384],[77.0937,27.2478],[77.1019,27.2417],[77.1107,27.2448],[77.1165,27.2503],[77.1242,27.2523],[77.1312,27.277],[77.1368,27.2889],[77.1435,27.2977],[77.1479,27.3114],[77.1505,27.3135],[77.1654,27.3135],[77.1763,27.3194],[77.1839,27.319],[77.1967,27.3221],[77.2034,27.3258],[77.2095,27.3358],[77.2104,27.3447],[77.2088,27.352],[77.2024,27.3512],[77.1953,27.3549],[77.1797,27.3516],[77.1772,27.3508],[77.1774,27.3492],[77.1657,27.3464],[77.158,27.3457],[77.1415,27.3463],[77.1249,27.3523],[77.1242,27.3462],[77.1216,27.342],[77.1181,27.3425],[77.1097,27.3457],[77.1156,27.356],[77.107,27.3622],[77.0996,27.3569],[77.0825,27.3499],[77.085,27.3648],[77.0944,27.3746],[77.0773,27.3888],[77.0732,27.389],[77.0674,27.3796],[77.0642,27.377],[77.0573,27.3769],[77.0514,27.3802],[77.0464,27.3771],[77.03,27.3859],[77.0292,27.3883],[77.0337,27.397],[77.0323,27.3982],[77.03,27.3986],[77.0249,27.3945],[77.0243,27.3902],[77.0183,27.3891],[77.0108,27.3933],[77.0105,27.3996],[77.0069,27.4054],[77.0081,27.4155],[77.0055,27.4191],[76.9943,27.4268],[76.9862,27.4275],[76.9808,27.4192],[76.978,27.4192],[76.9763,27.422],[76.9725,27.4227],[76.9641,27.4184],[76.9623,27.4196],[76.9607,27.4275],[76.9575,27.4309],[76.9515,27.4341],[76.9379,27.4481],[76.9265,27.4539],[76.9237,27.4588],[76.9155,27.459],[76.9133,27.4573],[76.9128,27.4541],[76.9016,27.4552],[76.9039,27.4594],[76.9081,27.4603],[76.9105,27.4688],[76.9155,27.4779],[76.9226,27.4806],[76.9254,27.4904],[76.9149,27.4968],[76.9097,27.494],[76.9072,27.4943],[76.9039,27.4909],[76.9018,27.4917],[76.8984,27.4905],[76.8951,27.4978],[76.8865,27.5017],[76.882,27.509],[76.8906,27.5211],[76.8954,27.5202],[76.898,27.5291],[76.9005,27.5325],[76.9105,27.528],[76.9277,27.5313],[76.9283,27.5296],[76.9267,27.5277],[76.9292,27.524],[76.9282,27.5211],[76.9111,27.5226],[76.9082,27.5168],[76.9253,27.5116],[76.938,27.5014],[76.9413,27.4938],[76.9416,27.4861],[76.9436,27.4829],[76.9492,27.4805],[76.9668,27.4773],[76.9723,27.4731],[76.9678,27.4647],[76.9745,27.4594],[76.9782,27.462],[76.9808,27.4611],[76.9816,27.4584],[77.0005,27.4509],[77.0027,27.4513],[77.0066,27.4486],[77.0273,27.4488],[77.0365,27.4627],[77.0424,27.4603],[77.0508,27.4539],[77.0512,27.452],[77.0397,27.4414],[77.042,27.4385],[77.0493,27.4338],[77.0578,27.4408],[77.0613,27.4418],[77.0623,27.4459],[77.0582,27.4504],[77.0595,27.4526],[77.0577,27.4581],[77.0535,27.4624],[77.0568,27.4711],[77.056,27.4754],[77.0476,27.4795],[77.0368,27.4915],[77.0267,27.4964],[77.021,27.5026],[77.0216,27.5082],[77.026,27.5098],[77.0343,27.5084],[77.0376,27.5175],[77.0462,27.5227],[77.0562,27.5247],[77.0647,27.5282],[77.0679,27.5321],[77.0665,27.5363],[77.0596,27.542],[77.0489,27.5404],[77.0432,27.5412],[77.0376,27.5444],[77.0355,27.5474],[77.0365,27.5483],[77.0494,27.5483],[77.0507,27.5499],[77.0494,27.5549],[77.0407,27.5562],[77.0363,27.553],[77.0296,27.5541],[77.0223,27.557],[77.0172,27.5616],[77.0064,27.5661],[77.0026,27.5657],[77.0029,27.5523],[77.0102,27.5448],[77.0197,27.5423],[77.0236,27.538],[77.0185,27.5349],[77.0005,27.5311],[76.9876,27.5354],[76.9842,27.5411],[76.9739,27.5475],[76.9675,27.5441],[76.9657,27.5379],[76.9624,27.5373],[76.9563,27.5473],[76.9515,27.5508],[76.9488,27.5548],[76.9527,27.5561],[76.9564,27.5547],[76.9604,27.5554],[76.9621,27.5645],[76.9597,27.5705],[76.9521,27.5733],[76.948,27.5684],[76.9415,27.5706],[76.9462,27.5798],[76.9449,27.5846],[76.9368,27.5979],[76.9371,27.6124],[76.9499,27.6141],[76.9742,27.6128],[76.9844,27.6138],[76.9862,27.6183],[76.9854,27.6351],[76.9782,27.6401],[76.9789,27.6541],[76.9665,27.6587],[76.9647,27.6615],[76.9595,27.6629],[76.945,27.6736],[76.9436,27.6736],[76.9389,27.6666],[76.9344,27.6561],[76.933,27.659],[76.9276,27.6616],[76.917,27.6526],[76.9117,27.6548],[76.913,27.6586],[76.9077,27.6617],[76.9118,27.6683],[76.899,27.6778],[76.9069,27.6867],[76.8928,27.6943],[76.8899,27.6975],[76.8907,27.7021],[76.8921,27.7026],[76.9099,27.6943],[76.9171,27.6983],[76.9213,27.6962],[76.9257,27.7001],[76.9213,27.7041],[76.9196,27.7102],[76.9145,27.7135],[76.9065,27.7169],[76.8954,27.7178],[76.8925,27.7287],[76.894,27.7349],[76.9,27.7389],[76.9012,27.7375],[76.9018,27.7398],[76.9016,27.7647],[76.9044,27.7693],[76.9029,27.7714],[76.903,27.7753],[76.9071,27.7789],[76.9083,27.7824],[76.9069,27.7878],[76.9097,27.7869],[76.9141,27.7886],[76.9122,27.7961],[76.9143,27.801],[76.9197,27.8041],[76.9193,27.8074],[76.9147,27.8081],[76.9107,27.8149],[76.9143,27.8317],[76.9157,27.8345],[76.9364,27.8288],[76.943,27.8426],[76.9437,27.8536],[76.9422,27.8555],[76.942,27.8642],[76.938,27.879],[76.9384,27.8962],[76.9423,27.8971],[76.9513,27.8956],[76.9503,27.9093],[76.9523,27.918],[76.9323,27.9223],[76.9315,27.953],[76.9339,27.9612],[76.9345,27.9723],[76.9386,27.9827],[76.9342,27.9816],[76.9315,27.9932],[76.9353,28.0034],[76.9406,28.0424],[76.9491,28.0589],[76.954,28.0625],[76.9553,28.0733],[76.958,28.0769],[76.9615,28.0954],[76.962,28.1083],[76.9662,28.1285],[76.9707,28.1381],[76.9482,28.1424],[76.9515,28.1498],[76.9429,28.1501],[76.9396,28.1519],[76.9327,28.1526],[76.9264,28.157],[76.928,28.1585],[76.9232,28.1611],[76.9201,28.1672],[76.9068,28.1718],[76.9073,28.1732],[76.9017,28.1784],[76.9028,28.1813],[76.8922,28.1843],[76.8911,28.188],[76.8926,28.1928],[76.899,28.1928],[76.9021,28.1988],[76.9064,28.1976],[76.9072,28.2002],[76.8932,28.2048],[76.8905,28.203],[76.8786,28.2065],[76.8743,28.2051],[76.8719,28.206],[76.8752,28.2179],[76.8674,28.22],[76.865,28.2191],[76.8603,28.2206],[76.8537,28.2206]]]}},{"type":"Feature","properties":{"district_id":"district_bikaner","shapeName":"Bikaner","shapeID":"76128533B55039756001726"},"geometry":{"type":"Polygon","coordinates":[[[72.2854,27.5488],[72.2974,27.5429],[72.2934,27.5264],[72.2887,27.5245],[72.2906,27.5223],[72.2854,27.5153],[72.2809,27.5127],[72.2531,27.5073],[72.2509,27.4974],[72.2512,27.491],[72.2551,27.487],[72.2502,27.4771],[72.2499,27.4682],[72.2565,27.461],[72.2622,27.4578],[72.2676,27.4575],[72.2798,27.4656],[72.2888,27.4751],[72.2948,27.4833],[72.2971,27.489],[72.3003,27.4913],[72.3021,27.4979],[72.3232,27.5096],[72.3281,27.5137],[72.3382,27.5099],[72.3602,27.4889],[72.3624,27.49],[72.3691,27.5274],[72.3781,27.5329],[72.3852,27.5429],[72.4015,27.5494],[72.4057,27.5482],[72.4088,27.543],[72.422,27.5544],[72.4388,27.5616],[72.4507,27.5858],[72.4567,27.5872],[72.4644,27.5868],[72.4698,27.5906],[72.4782,27.5854],[72.4845,27.5868],[72.4994,27.5857],[72.5012,27.5875],[72.5029,27.5836],[72.5155,27.5898],[72.5427,27.6101],[72.5614,27.6185],[72.5709,27.6064],[72.5747,27.6056],[72.5916,27.6091],[72.5951,27.6023],[72.5977,27.601],[72.6052,27.6067],[72.6205,27.5902],[72.6173,27.5835],[72.6255,27.5711],[72.645,27.5603],[72.6618,27.5324],[72.6725,27.5426],[72.6772,27.575],[72.6973,27.6044],[72.7091,27.5936],[72.7146,27.5847],[72.7189,27.5882],[72.7291,27.5645],[72.7293,27.5536],[72.7674,27.523],[72.7752,27.5331],[72.7797,27.5355],[72.7806,27.5449],[72.7792,27.5528],[72.775,27.5573],[72.775,27.5632],[72.7895,27.5687],[72.7904,27.5661],[72.8144,27.5723],[72.832,27.5794],[72.8312,27.5828],[72.8354,27.5835],[72.8368,27.5797],[72.8465,27.5704],[72.8515,27.5551],[72.8488,27.5337],[72.839,27.5213],[72.8336,27.52],[72.8268,27.5215],[72.8208,27.5163],[72.8276,27.5097],[72.827,27.4919],[72.8234,27.4879],[72.8259,27.4777],[72.832,27.4662],[72.8664,27.4771],[72.8839,27.477],[72.883,27.4696],[72.8751,27.4638],[72.8654,27.4497],[72.8595,27.4449],[72.861,27.4432],[72.8689,27.4455],[72.869,27.4425],[72.8775,27.4441],[72.8961,27.4508],[72.8969,27.4267],[72.8982,27.4216],[72.9034,27.4152],[72.9408,27.4476],[72.9471,27.4419],[72.9494,27.4328],[72.951,27.415],[72.9485,27.4084],[72.9496,27.4044],[72.9609,27.4022],[72.964,27.397],[72.9718,27.394],[72.973,27.3881],[72.9808,27.3902],[72.9849,27.3844],[72.9888,27.3839],[73.0139,27.4006],[73.0437,27.4105],[73.0834,27.4071],[73.0966,27.407],[73.102,27.4095],[73.1218,27.4081],[73.134,27.4016],[73.1395,27.3939],[73.1465,27.3902],[73.1463,27.3787],[73.1439,27.3741],[73.1483,27.3695],[73.1475,27.3625],[73.1513,27.3611],[73.1477,27.3541],[73.151,27.3511],[73.1487,27.3486],[73.1529,27.3208],[73.1643,27.2949],[73.1691,27.2946],[73.1786,27.2902],[73.1908,27.2807],[73.1982,27.2773],[73.2094,27.2778],[73.2113,27.2947],[73.2147,27.3045],[73.2436,27.3261],[73.2509,27.3258],[73.2539,27.3144],[73.2651,27.3141],[73.2691,27.3038],[73.2641,27.2963],[73.2665,27.2934],[73.2649,27.2849],[73.2802,27.2742],[73.2847,27.2681],[73.2864,27.2648],[73.2838,27.2587],[73.2852,27.2552],[73.2951,27.248],[73.3065,27.2351],[73.3143,27.231],[73.3234,27.2208],[73.3333,27.2046],[73.3343,27.1993],[73.3373,27.1995],[73.3404,27.1964],[73.3442,27.1985],[73.3471,27.1967],[73.3522,27.197],[73.35,27.1905],[73.3516,27.1868],[73.3546,27.1866],[73.359,27.1907],[73.3623,27.1965],[73.3633,27.1958],[73.3707,27.2018],[73.3687,27.2052],[73.375,27.2108],[73.3743,27.2136],[73.3607,27.221],[73.3598,27.2253],[73.3615,27.238],[73.3764,27.2605],[73.3865,27.2692],[73.3953,27.2745],[73.3954,27.2716],[73.4046,27.2744],[73.416,27.2867],[73.4511,27.3097],[73.4514,27.3139],[73.4588,27.3165],[73.4609,27.3149],[73.4818,27.3226],[73.5054,27.3334],[73.4963,27.3486],[73.4958,27.3605],[73.5274,27.3752],[73.5178,27.3879],[73.5098,27.3868],[73.5065,27.3953],[73.5064,27.4092],[73.5085,27.42],[73.5073,27.4338],[73.5241,27.4448],[73.5199,27.4511],[73.5225,27.4537],[73.5204,27.4576],[73.5236,27.4627],[73.523,27.4658],[73.5269,27.4783],[73.5309,27.485],[73.5409,27.4941],[73.5455,27.4957],[73.5503,27.4955],[73.5546,27.4928],[73.5646,27.4922],[73.5679,27.4863],[73.5735,27.4875],[73.5772,27.4849],[73.5857,27.489],[73.5882,27.4838],[73.6003,27.4903],[73.6043,27.4894],[73.6088,27.4925],[73.6081,27.5048],[73.6107,27.51],[73.6205,27.5172],[73.6068,27.5385],[73.6101,27.5419],[73.6149,27.54],[73.6194,27.5422],[73.6435,27.5648],[73.6488,27.567],[73.6522,27.567],[73.6633,27.5562],[73.6686,27.5578],[73.6731,27.5501],[73.6757,27.5502],[73.6876,27.535],[73.6927,27.5251],[73.7053,27.5277],[73.7092,27.5306],[73.7137,27.5281],[73.7295,27.5365],[73.7301,27.5401],[73.743,27.5427],[73.7482,27.5383],[73.7537,27.5363],[73.768,27.5177],[73.7819,27.5088],[73.7844,27.5116],[73.7893,27.5104],[73.8111,27.5175],[73.8216,27.5285],[73.8228,27.5338],[73.8387,27.5483],[73.8527,27.5511],[73.8528,27.5549],[73.8596,27.5607],[73.8598,27.5657],[73.8544,27.5842],[73.85,27.592],[73.8542,27.6007],[73.8598,27.6077],[73.8686,27.614],[73.8607,27.6184],[73.8567,27.6316],[73.845,27.6538],[73.8376,27.6572],[73.8306,27.6678],[73.8393,27.669],[73.8417,27.6709],[73.841,27.6795],[73.8368,27.6886],[73.8373,27.6943],[73.8452,27.6999],[73.8454,27.7045],[73.8435,27.7189],[73.8378,27.7234],[73.8311,27.7377],[73.8316,27.7431],[73.8342,27.7484],[73.8341,27.7556],[73.8318,27.7614],[73.832,27.7708],[73.8354,27.7814],[73.8431,27.7907],[73.8546,27.778],[73.863,27.7743],[73.8904,27.7707],[73.9051,27.771],[73.918,27.7739],[73.9299,27.7795],[73.9384,27.7865],[73.957,27.793],[73.9692,27.7957],[73.98,27.7952],[73.9883,27.7927],[74.0039,27.78],[74.0094,27.7717],[74.0071,27.7691],[73.9907,27.7689],[73.986,27.7663],[73.9817,27.7586],[73.9833,27.7497],[73.9852,27.7478],[73.9917,27.7478],[73.9978,27.7517],[74.0076,27.7517],[74.0079,27.7485],[73.9973,27.7325],[73.9986,27.7281],[74.0066,27.7224],[74.0266,27.7167],[74.0382,27.7205],[74.0503,27.7206],[74.0754,27.7374],[74.0896,27.7524],[74.0967,27.7687],[74.1013,27.7747],[74.1162,27.7853],[74.1281,27.7888],[74.1939,27.7999],[74.2133,27.8084],[74.2179,27.8118],[74.222,27.8234],[74.2252,27.8505],[74.2086,27.8832],[74.2075,27.8906],[74.2088,27.8981],[74.234,27.9205],[74.2345,27.9266],[74.2308,27.9427],[74.2336,27.9693],[74.2397,28.0008],[74.2448,28.0112],[74.2518,28.0155],[74.2714,28.0189],[74.2801,28.0264],[74.2898,28.0407],[74.291,28.0514],[74.2876,28.0626],[74.2879,28.0786],[74.298,28.1203],[74.299,28.1349],[74.3047,28.1444],[74.3105,28.15],[74.3315,28.151],[74.3411,28.1542],[74.3477,28.1597],[74.3559,28.1798],[74.3561,28.1922],[74.353,28.2043],[74.3358,28.219],[74.3179,28.228],[74.3096,28.2315],[74.2818,28.2356],[74.2743,28.2358],[74.2581,28.2301],[74.2524,28.2315],[74.2455,28.2301],[74.2398,28.2309],[74.2158,28.2567],[74.2105,28.2658],[74.2091,28.2706],[74.2124,28.2834],[74.2048,28.3066],[74.2015,28.3119],[74.1846,28.3117],[74.1666,28.3093],[74.1598,28.3101],[74.1553,28.3143],[74.1474,28.332],[74.1206,28.3386],[74.0998,28.3379],[74.0694,28.3321],[74.0688,28.3346],[74.0623,28.3361],[74.0475,28.3455],[74.0406,28.3558],[74.0385,28.3616],[74.0389,28.3684],[74.0309,28.3762],[74.0312,28.3932],[74.0326,28.3987],[74.0386,28.4057],[74.0482,28.4136],[74.0687,28.4158],[74.0754,28.4197],[74.0799,28.4253],[74.0724,28.4291],[74.0613,28.4455],[74.0613,28.4516],[74.0641,28.4587],[74.0627,28.4756],[74.0673,28.4975],[74.0662,28.5054],[74.061,28.5178],[74.0601,28.5238],[74.0617,28.529],[74.0766,28.5427],[74.0884,28.562],[74.1016,28.5759],[74.1095,28.5891],[74.1089,28.5974],[74.0947,28.6193],[74.0908,28.6405],[74.0839,28.6503],[74.0855,28.6565],[74.0833,28.6691],[74.1008,28.6794],[74.1112,28.6837],[74.1335,28.6902],[74.1417,28.6951],[74.177,28.7074],[74.1954,28.7114],[74.1936,28.7203],[74.1907,28.7251],[74.1866,28.724],[74.1841,28.7255],[74.1769,28.734],[74.1701,28.7375],[74.1425,28.7377],[74.139,28.7412],[74.1421,28.7508],[74.1476,28.7565],[74.1635,28.7639],[74.1605,28.7687],[74.1619,28.7771],[74.1606,28.7814],[74.1482,28.7855],[74.137,28.7955],[74.1196,28.7936],[74.0977,28.7829],[74.0888,28.7872],[74.0652,28.7774],[74.0603,28.7774],[74.0594,28.781],[74.0623,28.7853],[74.0665,28.7885],[74.0756,28.8039],[74.0803,28.8074],[74.0945,28.8257],[74.1047,28.8345],[74.1148,28.8331],[74.1271,28.839],[74.1214,28.847],[74.1237,28.8511],[74.1256,28.862],[74.1313,28.8752],[74.1301,28.8811],[74.1227,28.8964],[74.114,28.8993],[74.1159,28.9111],[74.1117,28.9242],[74.115,28.9374],[74.1132,28.9402],[74.0869,28.9324],[74.0808,28.9325],[74.075,28.9367],[74.0704,28.9363],[74.068,28.9381],[74.0677,28.9434],[74.074,28.9639],[74.0723,28.9692],[74.0526,28.9977],[74.0482,28.9993],[74.0431,28.9986],[74.0423,29.0049],[74.0436,29.0122],[74.0358,29.0109],[74.0301,29.0071],[74.0295,29.0034],[74.0311,29.0001],[74.0234,28.9865],[74.0227,28.9751],[74.0243,28.9643],[74.0216,28.9601],[74.0274,28.9332],[74.0166,28.9286],[74.0093,28.9204],[73.9762,28.9036],[73.9714,28.9124],[73.9606,28.9458],[73.964,28.9499],[73.9639,28.9561],[73.9688,28.9643],[73.97,28.9762],[73.9581,28.9718],[73.9122,28.961],[73.9113,28.9568],[73.8781,28.9409],[73.8715,28.9424],[73.8637,28.9378],[73.8479,28.9379],[73.8468,28.946],[73.8535,28.9517],[73.8434,28.9694],[73.8319,28.9668],[73.8282,28.9825],[73.8255,28.9867],[73.8204,28.9909],[73.8112,28.9922],[73.8058,29.0016],[73.7996,29.007],[73.7989,29.0186],[73.8039,29.0228],[73.8011,29.0408],[73.7942,29.0415],[73.7876,29.0397],[73.786,29.041],[73.7855,29.0504],[73.7735,29.0516],[73.7596,29.0308],[73.7545,29.0273],[73.7531,29.018],[73.7436,29.0075],[73.7379,29.0202],[73.7338,29.0229],[73.7319,29.0263],[73.7146,29.0242],[73.7097,29.0269],[73.703,29.027],[73.7017,29.0323],[73.7032,29.0369],[73.6909,29.0356],[73.6858,29.0275],[73.6849,29.0213],[73.6669,29.0183],[73.6631,29.0201],[73.6574,29.0184],[73.6464,29.027],[73.6398,29.03],[73.6353,29.0297],[73.6303,29.0376],[73.6252,29.0373],[73.6042,29.0277],[73.599,29.0213],[73.5697,28.9961],[73.5674,28.9968],[73.558,29.0088],[73.5439,29.0013],[73.522,28.9945],[73.5091,29.0059],[73.4929,29.0116],[73.4885,29.0119],[73.4557,28.9928],[73.4362,28.9905],[73.4284,28.9918],[73.4199,29.001],[73.416,29.0032],[73.3889,29.0101],[73.365,29.0054],[73.3466,29.0058],[73.3211,28.9891],[73.3088,28.9707],[73.3008,28.9693],[73.2911,28.9714],[73.2864,28.9677],[73.2808,28.9536],[73.2814,28.9403],[73.2736,28.9374],[73.2591,28.9422],[73.2497,28.9356],[73.229,28.9296],[73.2203,28.9195],[73.1986,28.8841],[73.2137,28.864],[73.2271,28.8526],[73.2234,28.8497],[73.2156,28.8524],[73.2065,28.8533],[73.1779,28.8295],[73.1747,28.8274],[73.1698,28.8268],[73.1605,28.8178],[73.1635,28.8139],[73.158,28.8068],[73.1583,28.7999],[73.1611,28.7946],[73.1512,28.7839],[73.1175,28.7669],[73.088,28.7626],[73.0651,28.7537],[73.0466,28.7484],[73.0367,28.7429],[73.0288,28.7353],[73.0124,28.7137],[73.0047,28.7119],[72.9992,28.7135],[72.9975,28.7172],[72.9649,28.738],[72.9588,28.7398],[72.9511,28.7369],[72.9439,28.7314],[72.9356,28.7286],[72.9256,28.7308],[72.8986,28.7452],[72.8264,28.7762],[72.8009,28.7782],[72.793,28.7813],[72.7666,28.7997],[72.7598,28.7951],[72.7481,28.7826],[72.7365,28.8023],[72.7235,28.8098],[72.7077,28.8317],[72.6938,28.8479],[72.6746,28.8637],[72.6732,28.8696],[72.6682,28.8779],[72.6489,28.9032],[72.4795,28.8119],[72.4038,28.7829],[72.355,28.7337],[72.2993,28.6698],[72.2792,28.6043],[72.2327,28.4739],[72.2064,28.3946],[72.132,28.3128],[72.0043,28.2185],[71.9275,28.1219],[71.8983,27.9613],[71.9104,27.9485],[71.9227,27.9247],[71.9257,27.9215],[71.9535,27.9119],[71.9572,27.9134],[71.968,27.924],[71.9822,27.9272],[71.9948,27.9431],[72.0016,27.9457],[72.0336,27.9493],[72.0391,27.9471],[72.0571,27.9348],[72.0796,27.9238],[72.0873,27.9168],[72.0876,27.9101],[72.0927,27.9028],[72.1006,27.8974],[72.1245,27.8862],[72.1469,27.8727],[72.1562,27.8598],[72.1515,27.8516],[72.1447,27.8443],[72.156,27.8111],[72.1569,27.7797],[72.1331,27.7578],[72.1194,27.7484],[72.1062,27.7492],[72.1023,27.742],[72.095,27.7361],[72.1027,27.7324],[72.0964,27.7218],[72.0989,27.7152],[72.1102,27.7051],[72.1186,27.7104],[72.149,27.7111],[72.1818,27.6994],[72.1941,27.6934],[72.2217,27.6745],[72.2278,27.6572],[72.253,27.6729],[72.2612,27.6832],[72.2778,27.6983],[72.3012,27.7076],[72.3311,27.693],[72.3444,27.6918],[72.3426,27.6823],[72.3307,27.6558],[72.3244,27.634],[72.3048,27.5996],[72.2835,27.5678],[72.2645,27.5578],[72.2854,27.5488]]]}},{"type":"Feature","properties":{"district_id":"district_udaipur","shapeName":"Udaipur","shapeID":"76128533B37392223136185"},"geometry":{"type":"Polygon","coordinates":[[[73.3676,23.8139],[73.3712,23.8149],[73.3775,23.8129],[73.3808,23.808],[73.3868,23.8119],[73.4028,23.8069],[73.4095,23.8082],[73.4132,23.8102],[73.4157,23.8147],[73.417,23.8241],[73.4273,23.8303],[73.433,23.8373],[73.4401,23.8368],[73.4588,23.8397],[73.4656,23.8433],[73.4706,23.8474],[73.4725,23.8629],[73.475,23.8693],[73.4834,23.8722],[73.4991,23.9033],[73.5125,23.924],[73.519,23.9312],[73.5495,23.9368],[73.556,23.9451],[73.5718,23.9602],[73.5764,23.9618],[73.5805,23.9605],[73.5935,23.9657],[73.6146,23.9628],[73.6162,23.9595],[73.647,23.9464],[73.6546,23.9452],[73.6563,23.9483],[73.6649,23.9497],[73.6684,23.9486],[73.672,23.9393],[73.6979,23.9585],[73.7226,23.9497],[73.7341,23.9441],[73.7396,23.9437],[73.754,23.9484],[73.7669,23.9404],[73.7736,23.9381],[73.7771,23.9389],[73.7841,23.947],[73.7933,23.9468],[73.8074,23.9448],[73.8099,23.9361],[73.8235,23.9387],[73.8332,23.9343],[73.8429,23.9338],[73.8588,23.9364],[73.8672,23.9534],[73.8712,23.9573],[73.8847,23.9667],[73.9107,23.9815],[73.919,23.9835],[73.9378,23.9776],[73.9481,23.9758],[73.9714,23.979],[73.9772,23.9778],[73.9865,23.9726],[74.0028,23.9686],[74.0174,23.9723],[74.0211,23.9754],[74.0294,23.9748],[74.0404,23.9794],[74.0502,23.9809],[74.0589,23.9792],[74.0723,23.9709],[74.0817,23.9685],[74.0862,23.9697],[74.0972,23.9769],[74.102,23.9862],[74.1067,23.9905],[74.1287,23.9908],[74.1311,23.9938],[74.1344,24.0178],[74.1454,24.0196],[74.1558,24.0136],[74.1613,24.0136],[74.1611,23.9997],[74.1713,23.9768],[74.1761,23.9699],[74.1831,23.9655],[74.1999,23.9612],[74.2065,23.955],[74.2278,23.9097],[74.2349,23.9106],[74.2519,23.9262],[74.2743,23.9367],[74.2753,23.9414],[74.2738,23.9516],[74.2794,23.9567],[74.2825,23.958],[74.2877,23.9572],[74.2884,23.9704],[74.285,23.9769],[74.2656,23.9921],[74.2606,24.0044],[74.2612,24.0075],[74.2706,24.0151],[74.2782,24.0299],[74.2825,24.048],[74.2813,24.0571],[74.3,24.0505],[74.2984,24.0356],[74.3043,24.0336],[74.3288,24.0141],[74.3393,24.009],[74.3503,24.0235],[74.3385,24.0379],[74.3331,24.0403],[74.3321,24.043],[74.3272,24.0466],[74.3407,24.0642],[74.3498,24.0685],[74.3496,24.0717],[74.3559,24.079],[74.3517,24.0876],[74.3683,24.0917],[74.3659,24.0895],[74.3641,24.0835],[74.3678,24.0819],[74.3737,24.0837],[74.3848,24.0821],[74.3891,24.0837],[74.3906,24.0748],[74.3959,24.0739],[74.3956,24.0776],[74.399,24.0831],[74.4078,24.0861],[74.4112,24.0905],[74.4131,24.0901],[74.4283,24.0998],[74.426,24.1031],[74.4247,24.1095],[74.4281,24.1113],[74.4327,24.1103],[74.4377,24.1222],[74.4392,24.1295],[74.4378,24.134],[74.4218,24.1299],[74.4143,24.1385],[74.4087,24.1354],[74.405,24.1447],[74.4065,24.1486],[74.4151,24.1526],[74.4152,24.157],[74.3992,24.1584],[74.3918,24.1563],[74.3878,24.153],[74.3841,24.1561],[74.3776,24.1556],[74.3634,24.1788],[74.3695,24.1871],[74.3693,24.1905],[74.3786,24.1906],[74.381,24.1926],[74.3923,24.2107],[74.4302,24.2199],[74.4352,24.2252],[74.439,24.232],[74.4393,24.2355],[74.4178,24.2452],[74.4157,24.2924],[74.3748,24.32],[74.3542,24.3375],[74.3535,24.352],[74.3645,24.3742],[74.3669,24.4107],[74.3557,24.424],[74.3523,24.4247],[74.3552,24.4208],[74.3523,24.4221],[74.3444,24.4206],[74.3384,24.4244],[74.334,24.4312],[74.331,24.444],[74.3345,24.4434],[74.3417,24.4358],[74.3439,24.4371],[74.3292,24.4507],[74.3259,24.4635],[74.3395,24.4734],[74.3399,24.4854],[74.3348,24.4938],[74.3237,24.4925],[74.309,24.4843],[74.2998,24.4822],[74.2858,24.5014],[74.281,24.5046],[74.2698,24.5042],[74.2618,24.4945],[74.2694,24.4699],[74.2573,24.4686],[74.2505,24.4735],[74.2444,24.4639],[74.2404,24.4491],[74.2348,24.4489],[74.2111,24.4557],[74.2099,24.4617],[74.2498,24.5309],[74.2697,24.5256],[74.2754,24.5258],[74.2805,24.5372],[74.2802,24.5654],[74.2674,24.5787],[74.2245,24.6164],[74.2261,24.6237],[74.2338,24.6264],[74.243,24.6263],[74.2488,24.6278],[74.2529,24.6269],[74.2597,24.6305],[74.2539,24.6386],[74.2517,24.6535],[74.2367,24.6607],[74.2322,24.6586],[74.2228,24.6475],[74.2215,24.6382],[74.2241,24.6285],[74.2075,24.63],[74.2061,24.6378],[74.1913,24.6482],[74.1852,24.6562],[74.1847,24.6578],[74.1895,24.6577],[74.1912,24.6608],[74.185,24.6675],[74.1816,24.6746],[74.1727,24.6785],[74.1576,24.6767],[74.1563,24.6869],[74.1579,24.689],[74.1659,24.6946],[74.1715,24.6956],[74.1766,24.7019],[74.1772,24.7051],[74.1742,24.7103],[74.1737,24.7163],[74.1522,24.7315],[74.1413,24.7274],[74.1322,24.7355],[74.1296,24.7329],[74.126,24.7371],[74.12,24.7397],[74.117,24.7469],[74.1171,24.7526],[74.12,24.7606],[74.1155,24.7627],[74.1114,24.7673],[74.1077,24.7813],[74.1108,24.7886],[74.1162,24.7944],[74.1121,24.804],[74.1115,24.8118],[74.1325,24.8461],[74.1306,24.8523],[74.1226,24.852],[74.0465,24.833],[74.031,24.8428],[74.0194,24.8721],[74.0029,24.8924],[73.9863,24.88],[73.9593,24.8542],[73.948,24.8684],[73.9321,24.8817],[73.897,24.8791],[73.8564,24.8869],[73.8543,24.8772],[73.8098,24.7805],[73.7973,24.7451],[73.7846,24.7353],[73.7575,24.7388],[73.7264,24.7706],[73.704,24.7893],[73.6923,24.7901],[73.6822,24.788],[73.6762,24.7937],[73.6796,24.8011],[73.6958,24.7995],[73.6988,24.8095],[73.6984,24.8121],[73.6944,24.8153],[73.6945,24.8184],[73.704,24.8204],[73.7096,24.8194],[73.7142,24.8222],[73.7096,24.8469],[73.7069,24.8491],[73.703,24.8568],[73.6931,24.8616],[73.6815,24.8626],[73.6667,24.8744],[73.6652,24.8782],[73.6577,24.8795],[73.6443,24.88],[73.6267,24.8779],[73.6188,24.8761],[73.6121,24.8721],[73.5988,24.8932],[73.59,24.9015],[73.5879,24.9014],[73.5782,24.9081],[73.5761,24.9062],[73.5693,24.9093],[73.5649,24.917],[73.5626,24.9342],[73.5081,24.9758],[73.5138,25.0068],[73.5244,25.0317],[73.5214,25.0405],[73.5127,25.0431],[73.5019,25.0538],[73.5018,25.0989],[73.5044,25.118],[73.5006,25.1151],[73.4978,25.1182],[73.4939,25.1172],[73.4929,25.1081],[73.485,25.1044],[73.4774,25.1044],[73.463,25.0897],[73.4246,25.0901],[73.4171,25.0885],[73.4111,25.0852],[73.4091,25.0799],[73.3983,25.0744],[73.3978,25.0698],[73.393,25.0666],[73.3899,25.0606],[73.3886,25.0534],[73.3846,25.0495],[73.3857,25.045],[73.3781,25.0408],[73.3786,25.0383],[73.3753,25.0359],[73.3725,25.0292],[73.3595,25.0281],[73.3551,25.024],[73.355,25.0164],[73.3519,25.0104],[73.3457,25.0104],[73.3436,24.9999],[73.345,24.9897],[73.3419,24.9851],[73.3308,24.9774],[73.3343,24.9677],[73.3379,24.967],[73.3473,24.9608],[73.3428,24.9554],[73.3445,24.9514],[73.333,24.929],[73.3313,24.9125],[73.3288,24.9088],[73.3204,24.9091],[73.3169,24.9076],[73.3074,24.8975],[73.3084,24.8887],[73.2917,24.8752],[73.2879,24.8749],[73.2841,24.8819],[73.2782,24.8787],[73.2744,24.8792],[73.2726,24.8776],[73.2709,24.8628],[73.2683,24.8582],[73.2405,24.8304],[73.2384,24.8235],[73.2393,24.8058],[73.2366,24.7979],[73.2322,24.7938],[73.2195,24.7925],[73.2019,24.7873],[73.1653,24.7685],[73.1537,24.7593],[73.146,24.7579],[73.1414,24.7528],[73.1421,24.7189],[73.1392,24.688],[73.1316,24.6757],[73.1176,24.6706],[73.1039,24.6537],[73.1013,24.6473],[73.0852,24.6367],[73.0859,24.6227],[73.0842,24.6116],[73.0579,24.5709],[73.0457,24.548],[73.028,24.5315],[73.0216,24.5194],[73.0132,24.5083],[73.0149,24.5004],[73.0074,24.4944],[73.007,24.4912],[73.0102,24.4827],[73.0192,24.4654],[73.0306,24.464],[73.0485,24.4655],[73.0508,24.4667],[73.0548,24.4728],[73.0647,24.4748],[73.0676,24.4811],[73.0724,24.4829],[73.0814,24.4904],[73.092,24.4949],[73.0965,24.4916],[73.0961,24.4727],[73.1048,24.4569],[73.1042,24.4455],[73.1064,24.4325],[73.1059,24.4264],[73.1038,24.4204],[73.0942,24.4173],[73.0905,24.4132],[73.0861,24.4002],[73.0818,24.3978],[73.0824,24.3946],[73.0957,24.3856],[73.1061,24.3875],[73.1087,24.3869],[73.1161,24.3758],[73.1249,24.3689],[73.1348,24.3645],[73.1428,24.363],[73.1521,24.3564],[73.1667,24.3508],[73.1778,24.3506],[73.188,24.3557],[73.2087,24.3753],[73.2292,24.3645],[73.2233,24.3563],[73.2141,24.3503],[73.2087,24.3341],[73.199,24.334],[73.1955,24.3396],[73.1905,24.3435],[73.1846,24.3348],[73.1823,24.309],[73.1781,24.3014],[73.1708,24.301],[73.1487,24.3108],[73.1423,24.3078],[73.1363,24.2801],[73.1133,24.2626],[73.0981,24.2378],[73.0991,24.2349],[73.1084,24.2312],[73.0983,24.2233],[73.0888,24.221],[73.0843,24.2009],[73.079,24.1968],[73.0797,24.1851],[73.088,24.1754],[73.1101,24.1578],[73.1136,24.1529],[73.1112,24.1386],[73.1204,24.1403],[73.1442,24.1225],[73.1583,24.12],[73.1647,24.1162],[73.1689,24.1112],[73.191,24.105],[73.1948,24.1107],[73.1972,24.1083],[73.221,24.098],[73.2063,24.0665],[73.1982,24.0573],[73.2052,24.0393],[73.2265,24.0279],[73.2265,24.0238],[73.2375,24.0181],[73.2397,24.0126],[73.243,24.0105],[73.2497,24.0109],[73.2536,24.0129],[73.2726,24.0277],[73.28,24.0285],[73.2883,24.0271],[73.3042,24.0511],[73.3088,24.0542],[73.3159,24.0564],[73.324,24.0621],[73.33,24.0733],[73.332,24.0822],[73.3294,24.1036],[73.3327,24.1147],[73.3404,24.1154],[73.3585,24.1136],[73.3712,24.1276],[73.3673,24.112],[73.3672,24.0875],[73.3724,24.0866],[73.3943,24.072],[73.4019,24.0646],[73.4114,24.0505],[73.4091,24.0246],[73.4069,24.0153],[73.4082,23.9978],[73.4026,23.99],[73.4115,23.9879],[73.4171,23.9821],[73.419,23.9741],[73.4167,23.9532],[73.4179,23.9359],[73.4222,23.9305],[73.4176,23.9228],[73.4052,23.9156],[73.3997,23.9177],[73.3935,23.9163],[73.3839,23.9053],[73.3797,23.8945],[73.3743,23.8883],[73.3685,23.8754],[73.3593,23.8614],[73.357,23.8542],[73.3691,23.8316],[73.3698,23.8214],[73.3676,23.8139]]]}},{"type":"Feature","properties":{"district_id":"district_kota","shapeName":"Kota","shapeID":"76128533B74447895476194"},"geometry":{"type":"Polygon","coordinates":[[[75.9243,24.5399],[75.9275,24.5456],[75.9272,24.5507],[75.9394,24.5506],[75.9542,24.5431],[75.9558,24.5439],[75.9579,24.5487],[75.9605,24.5492],[75.9621,24.5521],[75.9627,24.5612],[75.9652,24.5624],[75.9902,24.5622],[75.9947,24.5596],[76.0032,24.5642],[76.0091,24.5616],[76.02,24.5627],[76.0218,24.5645],[76.0294,24.5603],[76.0353,24.5594],[76.0421,24.5688],[76.0477,24.5699],[76.0522,24.5763],[76.0551,24.5782],[76.0666,24.5712],[76.0792,24.5745],[76.0825,24.5768],[76.0807,24.5884],[76.0754,24.5965],[76.0658,24.6234],[76.0649,24.6325],[76.0685,24.6494],[76.068,24.6681],[76.0715,24.6744],[76.0695,24.6758],[76.1043,24.6962],[76.1079,24.6969],[76.1154,24.6933],[76.1531,24.6547],[76.1894,24.6242],[76.1939,24.6234],[76.1957,24.6262],[76.1954,24.6305],[76.1862,24.6422],[76.1834,24.6501],[76.1849,24.6566],[76.1839,24.6646],[76.2016,24.6832],[76.2027,24.688],[76.198,24.7126],[76.2012,24.7431],[76.2052,24.7599],[76.2201,24.7775],[76.2242,24.7854],[76.2272,24.7962],[76.2282,24.8322],[76.2417,24.8324],[76.2484,24.8301],[76.2542,24.8307],[76.2569,24.8359],[76.2587,24.847],[76.2737,24.8439],[76.2705,24.8327],[76.271,24.8256],[76.2665,24.8162],[76.2668,24.8139],[76.2755,24.8073],[76.285,24.8081],[76.2913,24.8115],[76.2938,24.8175],[76.2915,24.8371],[76.3047,24.8372],[76.307,24.8428],[76.3144,24.8402],[76.3218,24.8497],[76.3322,24.8525],[76.3354,24.8574],[76.3359,24.8643],[76.3416,24.8695],[76.3532,24.8695],[76.3585,24.8724],[76.3661,24.8713],[76.3727,24.8647],[76.3801,24.8618],[76.3855,24.8515],[76.394,24.8463],[76.4006,24.8382],[76.4048,24.8389],[76.4079,24.8424],[76.4131,24.8446],[76.4194,24.8434],[76.4295,24.8328],[76.4374,24.8309],[76.4455,24.8308],[76.4461,24.8163],[76.4439,24.7832],[76.463,24.796],[76.4911,24.8222],[76.4974,24.8256],[76.5081,24.8223],[76.5434,24.8059],[76.5577,24.8042],[76.5659,24.8077],[76.574,24.817],[76.5748,24.8227],[76.5732,24.8342],[76.5762,24.8585],[76.5586,24.8722],[76.5367,24.8849],[76.4874,24.9206],[76.4743,24.9261],[76.4682,24.9103],[76.4646,24.907],[76.4625,24.9084],[76.4529,24.9228],[76.4468,24.9533],[76.4416,24.9621],[76.4319,24.9715],[76.4222,24.9773],[76.3991,24.9837],[76.3899,24.9832],[76.3783,24.9804],[76.363,24.9888],[76.3526,24.989],[76.3411,24.9838],[76.3369,24.9745],[76.325,24.959],[76.319,24.9579],[76.3151,24.96],[76.3054,24.9713],[76.2905,25.0008],[76.2714,25.0207],[76.2654,25.0245],[76.2484,25.041],[76.2218,25.0744],[76.2188,25.0844],[76.221,25.0953],[76.2265,25.1106],[76.2356,25.1605],[76.2415,25.1646],[76.2434,25.1746],[76.2473,25.1835],[76.2555,25.189],[76.2542,25.2092],[76.2511,25.2229],[76.2547,25.2379],[76.2652,25.2437],[76.2889,25.2467],[76.2947,25.252],[76.2995,25.2611],[76.3104,25.2948],[76.3156,25.3309],[76.3239,25.348],[76.332,25.3746],[76.3314,25.379],[76.3444,25.3765],[76.3518,25.3771],[76.3619,25.384],[76.3721,25.3887],[76.3864,25.3797],[76.3911,25.3803],[76.3973,25.3861],[76.408,25.3878],[76.4247,25.3799],[76.4307,25.3787],[76.4357,25.3804],[76.4418,25.3795],[76.4468,25.3818],[76.4453,25.3913],[76.4501,25.3995],[76.4787,25.4058],[76.4924,25.4071],[76.4968,25.4109],[76.5027,25.4212],[76.5097,25.4229],[76.5181,25.4223],[76.5211,25.4151],[76.5274,25.4124],[76.5325,25.4153],[76.5402,25.417],[76.5449,25.4131],[76.5623,25.4141],[76.5707,25.4111],[76.584,25.402],[76.5832,25.4183],[76.58,25.432],[76.57,25.4377],[76.5664,25.4452],[76.5653,25.4686],[76.5621,25.4751],[76.5524,25.485],[76.5479,25.4927],[76.5436,25.5055],[76.5284,25.5196],[76.5261,25.5253],[76.5282,25.5368],[76.528,25.5457],[76.5156,25.5751],[76.5157,25.5825],[76.5216,25.6023],[76.5206,25.629],[76.5166,25.6335],[76.5113,25.6335],[76.5066,25.6386],[76.5053,25.6436],[76.5167,25.6681],[76.5137,25.6714],[76.495,25.6787],[76.4877,25.6847],[76.4837,25.6904],[76.4838,25.7013],[76.4883,25.7134],[76.509,25.7239],[76.5326,25.7263],[76.5367,25.7292],[76.5364,25.739],[76.5283,25.7616],[76.5287,25.7696],[76.5354,25.7932],[76.5478,25.8126],[76.573,25.8349],[76.5401,25.84],[76.5197,25.838],[76.5077,25.8426],[76.5006,25.843],[76.4929,25.8413],[76.4875,25.8387],[76.483,25.8325],[76.4906,25.8162],[76.4882,25.8106],[76.4766,25.7994],[76.4666,25.7862],[76.4541,25.7745],[76.4466,25.7695],[76.42,25.7668],[76.4136,25.7648],[76.4091,25.7598],[76.4,25.7536],[76.3824,25.7494],[76.3651,25.7386],[76.3499,25.7031],[76.3414,25.6973],[76.3287,25.696],[76.3213,25.6934],[76.3112,25.6869],[76.3073,25.6816],[76.3075,25.6668],[76.3235,25.6554],[76.3262,25.6504],[76.3247,25.6427],[76.3153,25.6351],[76.3018,25.6322],[76.2994,25.6263],[76.298,25.6207],[76.2989,25.6151],[76.2964,25.6047],[76.302,25.5934],[76.2986,25.581],[76.2911,25.5692],[76.2935,25.5449],[76.2875,25.5301],[76.2756,25.5111],[76.2681,25.5053],[76.2507,25.5057],[76.2429,25.504],[76.2328,25.4997],[76.2166,25.4865],[76.2098,25.4845],[76.1958,25.4976],[76.1905,25.4968],[76.1857,25.4926],[76.1845,25.4637],[76.1762,25.4386],[76.1688,25.4366],[76.1647,25.4333],[76.1667,25.4286],[76.1666,25.423],[76.1622,25.4162],[76.1571,25.4118],[76.1389,25.4061],[76.1385,25.3993],[76.1429,25.396],[76.154,25.392],[76.1549,25.3861],[76.1528,25.3805],[76.1474,25.3758],[76.141,25.3738],[76.1389,25.3703],[76.154,25.3633],[76.158,25.3604],[76.161,25.3547],[76.1599,25.3476],[76.1531,25.3359],[76.147,25.3377],[76.1369,25.3446],[76.1317,25.3441],[76.1138,25.3289],[76.1094,25.3304],[76.0981,25.3417],[76.0912,25.3464],[76.075,25.3496],[76.0706,25.3455],[76.0699,25.3339],[76.0658,25.3286],[76.05,25.32],[76.0396,25.3233],[76.0258,25.3146],[76.0227,25.3075],[76.0253,25.2985],[76.0342,25.2844],[76.0342,25.2772],[76.022,25.2633],[76.0042,25.2531],[75.9945,25.2415],[75.9824,25.2307],[75.9819,25.2402],[75.9505,25.2758],[75.9139,25.2552],[75.9057,25.2419],[75.9032,25.2345],[75.8864,25.2362],[75.8802,25.2252],[75.8704,25.2318],[75.8306,25.2268],[75.8207,25.2343],[75.8376,25.2402],[75.8348,25.2448],[75.8291,25.2485],[75.8154,25.2477],[75.7948,25.2581],[75.7947,25.2492],[75.7915,25.2361],[75.7958,25.2244],[75.7898,25.2114],[75.7792,25.1969],[75.7661,25.1843],[75.7484,25.1713],[75.7371,25.1658],[75.7401,25.1582],[75.751,25.1409],[75.728,25.1242],[75.728,25.1191],[75.7314,25.1144],[75.7378,25.1117],[75.7498,25.1102],[75.759,25.1115],[75.7626,25.1069],[75.7607,25.1005],[75.7537,25.0938],[75.7484,25.086],[75.744,25.0723],[75.7071,25.0425],[75.697,25.0304],[75.6713,25.0226],[75.6626,25.0131],[75.6398,25.0025],[75.6374,24.9998],[75.625,24.9964],[75.6245,24.9929],[75.6269,24.991],[75.6426,24.9842],[75.6569,24.9749],[75.6577,24.9622],[75.6674,24.945],[75.6871,24.9278],[75.6939,24.9256],[75.7023,24.917],[75.7295,24.9023],[75.7471,24.8896],[75.7619,24.8766],[75.7679,24.8736],[75.7883,24.8682],[75.8227,24.8671],[75.8153,24.8234],[75.809,24.8142],[75.8043,24.7851],[75.7899,24.7616],[75.8093,24.7524],[75.8316,24.7324],[75.8426,24.7259],[75.8458,24.7135],[75.8375,24.682],[75.8309,24.6676],[75.8319,24.6643],[75.8408,24.6661],[75.8477,24.6654],[75.8524,24.6606],[75.8525,24.6492],[75.8476,24.6354],[75.8478,24.6308],[75.8499,24.6275],[75.8466,24.6222],[75.8418,24.6197],[75.838,24.6199],[75.834,24.6161],[75.8318,24.6095],[75.8429,24.6049],[75.8391,24.5937],[75.842,24.5918],[75.846,24.5964],[75.8487,24.6065],[75.8563,24.6104],[75.8672,24.609],[75.8694,24.6034],[75.8778,24.6032],[75.8804,24.5957],[75.8795,24.5869],[75.8881,24.5778],[75.8975,24.5778],[75.9067,24.5729],[75.9148,24.5731],[75.919,24.5705],[75.9212,24.5676],[75.9196,24.5634],[75.917,24.5614],[75.9116,24.5615],[75.9094,24.5567],[75.9103,24.5483],[75.9107,24.5466],[75.9243,24.5399]]]}}]}